#aV2008  8 26  0  0   .00000000      96 DD+AD WGS84 FIT  NGA
## 1494 172800.00000000   900.00000000 54704  .0000000000000
+   31     2  3  4  5  6  7  8  9 10 11 12 13 14 15 16 17 18
+         19 20 21 22 23 24 25 26 27 28 29 30 31 32  0  0  0
+          0  0  0  0  0  0  0  0  0  0  0  0  0  0  0  0  0
+          0  0  0  0  0  0  0  0  0  0  0  0  0  0  0  0  0
+          0  0  0  0  0  0  0  0  0  0  0  0  0  0  0  0  0
++         0  0  0  0  0  0  0  0  0  0  0  0  0  0  0  0  0
++         0  0  0  0  0  0  0  0  0  0  0  0  0  0  0  0  0
++         0  0  0  0  0  0  0  0  0  0  0  0  0  0  0  0  0
++         0  0  0  0  0  0  0  0  0  0  0  0  0  0  0  0  0
++         0  0  0  0  0  0  0  0  0  0  0  0  0  0  0  0  0
%c cc cc ccc ccc cccc cccc cccc cccc ccccc ccccc ccccc ccccc
%c cc cc ccc ccc cccc cccc cccc cccc ccccc ccccc ccccc ccccc
%f  0.0000000  0.000000000  0.00000000000  0.000000000000000
%f  0.0000000  0.000000000  0.00000000000  0.000000000000000
%i    0    0    0    0      0      0      0      0         0
%i    0    0    0    0      0      0      0      0         0
/*      NGA, ST. LOUIS,MO.                                  
/*   EPHEMERIS COMPUTED FROM  3 DAYS OF DATA                
/* CCCCCCCCCCCCCCCCCCCCCCCCCCCCCCCCCCCCCCCCCCCCCCCCCCCCCCCCC
/* CCCCCCCCCCCCCCCCCCCCCCCCCCCCCCCCCCCCCCCCCCCCCCCCCCCCCCCCC
*  2008  8 26 19 15   .00000000                                                 
P  2 -22844.283856  12705.587501  -3546.346954    192.023346                    
V  2   1525.768210  -5510.161267 -31147.099298      -.027975                    
P  3  12515.587083 -12582.385244  19386.704269    275.001319                    
V  3   6287.045342  24713.204231  12171.410334       .051566                    
P  4 -22698.943615   2994.685610 -13867.119243   -153.528612                    
V  4  13136.861055 -11560.773523 -23814.587448      -.106948                    
P  5   4372.852381  17195.154841 -20093.132934    327.323035                    
V  5 -23719.982565  -7672.802209 -11766.154486     -2.426989                    
P  6  14697.424884  -7705.674453  20930.903385    167.620433                    
V  6   3796.073449  25979.656704   6956.487338       .000463                    
P  7  -5067.817357 -14647.314336  21529.360776     12.261322                    
V  7  22941.664262 -15009.485012  -4893.641457       .034164                    
P  8 -16822.635547  -5325.628433  19925.542490   -167.371916                    
V  8  21305.795119 -13596.078734  13822.553622      -.015633                    
P  9 -10190.820678  19963.806162 -14787.519464     11.876899                    
V  9 -15302.120206   9061.125115  23953.226322       .019303                    
P 10 -18681.925666   4694.756722  18289.328658     -4.192647                    
V 10 -20154.484691 -11931.288152 -17074.665119      -.004005                    
P 11   5899.483189 -21865.711575 -13773.475178     20.991445                    
V 11  15132.379984  -9775.704181  22606.004284      -.006511                    
P 12  -2003.258939  15520.163749 -21393.198886   -353.261380                    
V 12 -24761.769170 -11563.131064  -5950.441154       .012994                    
P 13  -5900.340332 -24518.761853   8222.778924    269.021164                    
V 13   1357.253083 -10604.859622 -30206.279321       .013245                    
P 14  13836.398563   9666.453480 -20433.098300   -227.408224                    
V 14    369.206173  26083.179001  12414.556663       .046086                    
P 15  -7813.929740  21413.296846  13647.800951   -166.666097                    
V 15  -3733.302080 -17045.556284  24663.534569      -.064934                    
P 16  22131.747994   -281.646237  14895.886380    110.216008                    
V 16  15868.815561  10074.181029 -23277.845141      -.019352                    
P 17 -14606.266833  -9575.053709 -20013.947652     38.901189                    
V 17   -470.108602 -25482.960394  12339.522848      -.001366                    
P 18  17294.372458  17641.244405  10435.090289   -140.693354                    
V 18 -12558.101087  -3766.036159  27339.467911       .041579                    
P 19   8801.869275 -21604.042280  12584.107815     35.031590                    
V 19   2544.747065  15932.237285  25933.762677       .002778                    
P 20  -1251.067846 -16913.135486 -20563.289982    106.375734                    
V 20  23924.351741   9964.455326  -9671.786339      -.010660                    
P 21  11158.661609  11579.536875  21391.867918     52.999427                    
V 21 -22407.639043  14575.352522   3217.859985      -.014292                    
P 22  23961.911380  11369.587028  -1806.383251    211.175720                    
V 22    634.954490   4077.039581  31227.248902      -.001123                    
P 23     58.746734 -26279.816535  -2728.409792    370.652100                    
V 23   2912.614446   3219.702646 -31916.246184       .015652                    
P 24  -4900.422985  18521.698120  18669.765459    120.243726                    
V 24 -20653.193062  10885.390241 -16091.559976       .030706                    
P 25   1437.463780 -18566.888762  19360.893960   -252.860862                    
V 25  19003.066600 -14302.273292 -15237.092345      -.338402                    
P 26 -10397.763719  17162.801959  16617.252358    316.110727                    
V 26  -2173.260392 -22156.780427  21420.840045       .059718                    
P 27  -8574.777111 -12719.823859  22358.914334    213.070435                    
V 27  21270.391837 -16213.032218  -1219.387452       .028314                    
P 28 -23735.336253 -12316.746812    -20.234554    -22.074434                    
V 28    678.592535  -2374.912840  31620.040279      -.002070                    
P 29   4938.364659  25618.976824   5177.549875    -39.070635                    
V 29  -2391.174550   6556.750191 -30808.094625       .007543                    
P 30  12985.020980  17677.966209 -15398.897501     93.296991                    
V 30 -18173.984235  -5647.673161 -22232.251436       .020240                    
P 31  23138.278403  -6447.765855 -11257.835360    -25.048051                    
V 31 -10785.870353  10003.808967 -27299.220504       .000184                    
P 32   6985.383504 -13128.332656 -21580.144870    314.740648                    
V 32  24423.226988  14521.344469   -732.869200       .012135                    
EOF
